     3.00           N                   E                   RINEX VERSION / TYPE
BRD_USR             ESA                 20190109 201619  UTCPGM / RUN BY / DATE
 GAL   4.8500E+01  5.8594E-02 -4.1504E-03  0.0000E+00       IONOSPHERIC CORR
GAUT  0.0000000000E+00 0.000000000E+00 259200 2035 GSTB   0 TIME SYSTEM CORR
GPGA -1.7753336579E-09-4.440892099E-15 345600 2035 GSTB   0 TIME SYSTEM CORR
                                                            END OF HEADER
E19 2019 01 09 17 40 00-9.252631571144E-06 3.126388037344E-13 0.000000000000E+00
     2.600000000000E+01 1.156250000000E+00 3.191561512776E-09-7.952338517219E-01
     5.960464477539E-08 1.325851771981E-04 1.014210283756E-05 5.440618843079E+03
     3.228000000000E+05 4.097819328308E-08 1.239497739679E+00 4.656612873077E-08
     9.581348547111E-01 1.195937500000E+02 2.374802389766E+00-5.468442068276E-09
     6.021679398546E-10 2.580000000000E+02 2.035000000000E+03 0.000000000000E+00
     3.120000000000E+00 0.000000000000E+00-8.614733815193E-09 0.000000000000E+00
     3.240000000000E+05 0.000000000000E+00 0.000000000000E+00 0.000000000000E+00
E21 2019 01 09 16 50 00-5.136036779732E-04-1.946887095983E-12 0.000000000000E+00
     2.100000000000E+01 2.625000000000E+01 2.581178945035E-09-1.774255573438E-02
     1.097097992897E-06 4.915893077850E-05 1.114606857300E-05 5.440626693726E+03
     3.198000000000E+05 5.587935447693E-09-2.950477449720E+00-4.470348358154E-08
     9.898153010032E-01 1.120000000000E+02-1.419324978411E-01-5.183787354122E-09
    -6.185971956276E-10 2.580000000000E+02 2.035000000000E+03 0.000000000000E+00
     3.120000000000E+00 0.000000000000E+00-2.561137080193E-09 0.000000000000E+00
     3.240000000000E+05 0.000000000000E+00 0.000000000000E+00 0.000000000000E+00
E24 2019 01 09 17 40 00 6.294606195297E-03-1.968203378055E-11 0.000000000000E+00
     2.600000000000E+01 1.796875000000E+01 2.652253334140E-09-2.625907168099E+00
     9.015202522278E-07 4.725792678073E-04 1.064501702785E-05 5.440618492126E+03
     3.228000000000E+05-3.725290298462E-09-2.944420437833E+00-1.676380634308E-08
     9.878177097726E-01 1.243437500000E+02 4.611294418579E-01-5.238075329720E-09
    -5.243075537999E-10 2.580000000000E+02 2.035000000000E+03 0.000000000000E+00
     3.120000000000E+00 0.000000000000E+00 4.260800778866E-08 0.000000000000E+00
     3.240000000000E+05 0.000000000000E+00 0.000000000000E+00 0.000000000000E+00
E25 2019 01 09 17 40 00 1.928808982484E-03-1.131184035330E-11 0.000000000000E+00
     2.600000000000E+01 2.918750000000E+01 2.550463379894E-09-1.572794257422E+00
     1.274049282074E-06 2.094635274261E-04 1.065805554390E-05 5.440632278442E+03
     3.228000000000E+05-5.215406417847E-08-2.950501592257E+00-1.490116119385E-08
     9.898186627889E-01 1.227812500000E+02-1.354982042087E+00-5.214502919263E-09
    -5.535944880039E-10 2.580000000000E+02 2.035000000000E+03 0.000000000000E+00
     3.120000000000E+00 0.000000000000E+00-1.396983861923E-09 0.000000000000E+00
     3.240000000000E+05 0.000000000000E+00 0.000000000000E+00 0.000000000000E+00
E26 2019 01 09 17 00 00 5.038823699579E-03-4.339995030023E-11 0.000000000000E+00
     2.200000000000E+01-3.556250000000E+01 3.114772599924E-09-1.332475876912E-01
    -1.603737473488E-06 3.248860593885E-04-2.160668373108E-07 5.440602731705E+03
     3.204000000000E+05-8.568167686462E-08-8.588281294788E-01 2.607703208923E-08
     9.782590337640E-01 3.543125000000E+02-2.056489077527E+00-5.924175337110E-09
     1.071473202588E-12 2.580000000000E+02 2.035000000000E+03 0.000000000000E+00
     3.120000000000E+00 0.000000000000E+00 9.313225746155E-10 0.000000000000E+00
     3.240000000000E+05 0.000000000000E+00 0.000000000000E+00 0.000000000000E+00
E27 2019 01 09 17 40 00 5.530850030482E-04-7.759126674500E-12 0.000000000000E+00
     2.600000000000E+01 4.225000000000E+01 2.586179153314E-09 1.878453035692E+00
     2.037733793259E-06 2.027811715379E-04 1.096539199352E-05 5.440630344391E+03
     3.228000000000E+05 8.568167686462E-08-2.950477170303E+00-2.048909664154E-08
     9.897856066920E-01 1.155312500000E+02-8.793532680447E-01-5.195573559350E-09
    -5.707380592453E-10 2.580000000000E+02 2.035000000000E+03 0.000000000000E+00
     3.120000000000E+00 0.000000000000E+00-2.328306436539E-09 0.000000000000E+00
     3.240000000000E+05 0.000000000000E+00 0.000000000000E+00 0.000000000000E+00
E30 2019 01 09 17 40 00 5.201857129578E-03-3.041122909053E-11 0.000000000000E+00
     2.600000000000E+01 4.712500000000E+01 2.589036415187E-09 1.247327188001E+00
     2.147629857063E-06 3.030135994777E-04 1.090578734875E-05 5.440618019104E+03
     3.228000000000E+05-3.725290298462E-09-2.944476647534E+00 6.146728992462E-08
     9.878019278124E-01 1.190625000000E+02 5.173788014638E-01-5.156286208589E-09
    -4.982350392035E-10 2.580000000000E+02 2.035000000000E+03 0.000000000000E+00
     3.120000000000E+00 0.000000000000E+00-2.793967723846E-09 0.000000000000E+00
     3.240000000000E+05 0.000000000000E+00 0.000000000000E+00 0.000000000000E+00
E31 2019 01 09 16 50 00 9.369114995934E-04-9.734435479913E-12 0.000000000000E+00
     2.100000000000E+01 1.881250000000E+01 2.566535477933E-09-2.182230875818E-01
     9.313225746155E-07 2.465718425810E-04 1.080147922039E-05 5.440627124786E+03
     3.198000000000E+05-4.097819328308E-08-2.950510475096E+00-2.421438694000E-08
     9.897909126959E-01 1.233750000000E+02-1.510764618828E+00-5.187001773730E-09
    -5.514515415988E-10 2.580000000000E+02 2.035000000000E+03 0.000000000000E+00
     3.120000000000E+00 0.000000000000E+00-2.328306436539E-10 0.000000000000E+00
     3.240000000000E+05 0.000000000000E+00 0.000000000000E+00 0.000000000000E+00
E33 2019 01 09 17 40 00 8.478891104460E-04 2.842170943040E-14 0.000000000000E+00
     2.600000000000E+01-2.637500000000E+01 2.980481291866E-09-1.211133836929E+00
    -1.184642314911E-06 3.655953332782E-04 8.568167686462E-08 5.440592201233E+03
     3.228000000000E+05-2.793967723846E-08-8.678009901831E-01 3.539025783539E-08
     9.851376379997E-01 3.506250000000E+02-1.472738047074E+00-5.887030932754E-09
     3.643008888800E-11 2.580000000000E+02 2.035000000000E+03 0.000000000000E+00
     3.120000000000E+00 5.600000000000E+01-8.149072527885E-09 0.000000000000E+00
     3.240000000000E+05 0.000000000000E+00 0.000000000000E+00 0.000000000000E+00
E36 2019 01 09 17 40 00 7.616154616699E-04-4.447997525858E-12 0.000000000000E+00
     2.600000000000E+01-4.256250000000E+01 2.901906590343E-09 2.825086977058E+00
    -1.922249794006E-06 3.308545565233E-04 2.589076757431E-07 5.440600725174E+03
     3.228000000000E+05 1.490116119385E-08-8.677746108443E-01-1.676380634308E-08
     9.851460102799E-01 3.465000000000E+02-1.580264088297E+00-5.813813597244E-09
    -3.535861568541E-11 2.580000000000E+02 2.035000000000E+03 0.000000000000E+00
     3.120000000000E+00 5.600000000000E+01 1.164153218269E-09 0.000000000000E+00
     3.240000000000E+05 0.000000000000E+00 0.000000000000E+00 0.000000000000E+00
E01 2019 01 09 17 40 00-5.172274541110E-04-8.157030606526E-12 0.000000000000E+00
     2.600000000000E+01 2.475000000000E+01 2.509747398196E-09 1.728059239118E-01
     1.056119799614E-06 1.111521851271E-04 1.116655766964E-05 5.440617832184E+03
     3.228000000000E+05 1.247972249985E-07-2.947886405290E+00-1.154839992523E-07
     9.902512227953E-01 1.145625000000E+02-7.620989956822E-01-5.072354141053E-09
    -5.853815263474E-10 5.210000000000E+02 2.035000000000E+03 0.000000000000E+00
     3.120000000000E+00 0.000000000000E+00-4.656612873077E-09-5.355104804039E-09
     3.240250000000E+05 0.000000000000E+00 0.000000000000E+00 0.000000000000E+00
E02 2019 01 09 17 40 00 4.263804294169E-05 1.648459146963E-12 0.000000000000E+00
     2.600000000000E+01 3.159375000000E+01 2.484032041334E-09 2.789411833994E+00
     1.370906829834E-06 2.662392798811E-04 1.074001193047E-05 5.440625236511E+03
     3.228000000000E+05-8.940696716309E-08-2.947918096484E+00 9.872019290924E-08
     9.902583676872E-01 1.248437500000E+02-2.388277693924E-01-5.189144720135E-09
    -5.539516457381E-10 5.210000000000E+02 2.035000000000E+03 0.000000000000E+00
     3.120000000000E+00 0.000000000000E+00-6.053596735001E-09-7.450580596924E-09
     3.240250000000E+05 0.000000000000E+00 0.000000000000E+00 0.000000000000E+00
E03 2019 01 09 17 20 00-1.203134306706E-04-4.220623850415E-12 0.000000000000E+00
     2.400000000000E+01 3.043750000000E+01 3.383355216040E-09-2.399935641284E+00
     1.288950443268E-06 2.612676471472E-04 9.451061487198E-06 5.440615591049E+03
     3.216000000000E+05-3.725290298462E-08 1.242774907318E+00-9.313225746155E-09
     9.523617864454E-01 1.332812500000E+02 6.094142737849E-01-5.568803391585E-09
     5.664521664350E-10 5.210000000000E+02 2.035000000000E+03 0.000000000000E+00
     3.120000000000E+00 0.000000000000E+00-2.095475792885E-09-2.328306436539E-09
     3.240250000000E+05 0.000000000000E+00 0.000000000000E+00 0.000000000000E+00
E04 2019 01 09 17 40 00-1.966031850316E-04-7.830180948076E-12 0.000000000000E+00
     2.600000000000E+01 2.562500000000E+00 3.370140379874E-09-1.427895298188E+00
     6.146728992462E-08 7.042719516903E-05 9.588897228241E-06 5.440614463806E+03
     3.228000000000E+05 3.166496753693E-08 1.242818812415E+00-2.048909664154E-08
     9.524055408622E-01 1.341250000000E+02 2.146845393459E+00-5.510943838646E-09
     5.578803808143E-10 5.210000000000E+02 2.035000000000E+03 0.000000000000E+00
     3.120000000000E+00 0.000000000000E+00-7.916241884232E-09-9.080395102501E-09
     3.240250000000E+05 0.000000000000E+00 0.000000000000E+00 0.000000000000E+00
